JY1SAT (JO-97)          
1 43803U 18099AX  26068.68634132  .00017774  00000+0  60804-3 0  9996
2 43803  97.4249 131.3625 0004723 256.6795 103.3919 15.30302628398390
STARLINK-33894          
1 63697U 25087A   26068.69747993  .00028522  00000+0  97148-3 0  9999
2 63697  53.1586 219.3210 0000555  28.0577 332.0454 15.30198518 49200
