[{"OBJECT_NAME":"JY1SAT (JO-97)","OBJECT_ID":"2018-099AX","EPOCH":"2026-03-09T16:28:19.890048","MEAN_MOTION":15.30302629,"ECCENTRICITY":0.00047232,"INCLINATION":97.4249,"RA_OF_ASC_NODE":131.3625,"ARG_OF_PERICENTER":256.6795,"MEAN_ANOMALY":103.3919,"EPHEMERIS_TYPE":0,"CLASSIFICATION_TYPE":"U","NORAD_CAT_ID":43803,"ELEMENT_SET_NO":999,"REV_AT_EPOCH":39839,"BSTAR":0.00060804308,"MEAN_MOTION_DOT":0.00017774,"MEAN_MOTION_DDOT":0},{"OBJECT_NAME":"STARLINK-33894","OBJECT_ID":"2025-087A","EPOCH":"2026-03-09T16:44:22.265952","MEAN_MOTION":15.30198518,"ECCENTRICITY":5.548e-5,"INCLINATION":53.1586,"RA_OF_ASC_NODE":219.321,"ARG_OF_PERICENTER":28.0577,"MEAN_ANOMALY":332.0454,"EPHEMERIS_TYPE":0,"CLASSIFICATION_TYPE":"U","NORAD_CAT_ID":63697,"ELEMENT_SET_NO":999,"REV_AT_EPOCH":4920,"BSTAR":0.00097147908,"MEAN_MOTION_DOT":0.00028522,"MEAN_MOTION_DDOT":0}]
